RADCAL                  
1 22698U 93041A   08237.20524850  .00000074  00000-0  26064-4 0  1300
2 22698  89.5189  43.1415 0088510 205.8489 153.8251 14.22799709787046
STRV 1A                 
1 23125U 94034B   08236.15834890  .00001300  00000-0  33966-3 0  2458
2 23125   7.3135 251.3804 6855036 329.9719   4.1875  2.82663688130974
STRV 1B                 
1 23126U 94034C   08238.20785212  .00001690  00000-0  31588-3 0  2696
2 23126   7.0058 199.4827 6811720  71.2290 347.5140  2.89765682133040
HELIOS 1A               
1 23605U 95033A   08238.13714535  .00000092  00000-0  26628-4 0  3359
2 23605  98.1290 173.0402 0000133 284.4008  75.7189 14.63846838701867
REX 2                   
1 23814U 96014A   08238.15656205  .00000025  00000-0  63766-5 0  4668
2 23814  90.1529 266.9441 0021161 195.8695 164.1831 14.23847039647420
COSMOS 2346             
1 24953U 97052A   08238.23751881  .00000014  00000-0 -75688-6 0  2430
2 24953  82.9228 177.2219 0037976 243.1489 116.5785 13.79432096549823
ARGOS                   
1 25634U 99008A   08237.72865779 -.00000191  00000-0 -69414-4 0  5062
2 25634  99.0496 263.2990 0011049  72.8217 287.4143 14.18895039492004
HELIOS 1B               
1 25977U 99064A   08238.04191000  .00000498  00000-0  77338-4 0  4936
2 25977  98.3222 222.7185 0001650 146.6409 213.4916 14.77611737468195
MTI                     
1 26102U 00014A   08238.07099142 -.00000241  00000-0 -10652-4 0  8209
2 26102  97.1970  53.0469 0021523  60.0448  87.6090 15.11543912464666
STRV 1C                 
1 26610U 00072C   08233.73563205 -.00000234  00000-0  00000+0 0  8146
2 26610   7.2486  17.4846 7340658 237.4081  31.6389  2.03456434 57702
OFEQ 5                  
1 27434U 02025A   08238.12700051  .00001037  00000-0  39034-4 0  4085
2 27434 143.4638 309.8707 0025119  82.7907 277.5692 15.05272421348659
HELIOS-2A               
1 28492U 04049A   08238.17061542  .00000068  00000-0  22117-4 0  1497
2 28492  98.1325 173.1021 0000682 109.1794 250.9486 14.63830269196830
ESSAIM-1                
1 28494U 04049C   08238.11779648  .00000058  00000-0  17999-4 0  2049
2 28494  98.2103 188.2840 0004181  91.0637 269.1057 14.70167796197581
ESSAIM-2                
1 28495U 04049D   08238.11738230  .00000056  00000-0  17697-4 0  2427
2 28495  98.2113 188.3665 0005190  88.0102 272.1707 14.70165985197587
ESSAIM-3                
1 28496U 04049E   08238.11801338  .00000055  00000-0  17624-4 0  1729
2 28496  98.2227 192.2031 0010150 101.6698 258.5656 14.70166041197764
ESSAIM-4                
1 28497U 04049F   08238.11755129  .00000017  00000-0  11240-4 0  2262
2 28497  98.2229 192.2365 0013322  98.5923 261.6799 14.70166187197760
SAR-LUPE 1              
1 29658U 06060A   08238.06839700  .00000455  00000-0  20658-4 0  9029
2 29658  98.1090 306.0138 0022355 204.3664 250.3854 15.26503825 93750
MIDSTAR-1               
1 30773U 07006B   08237.21715408 -.00000304  00000-0  00000+0 0  4195
2 30773  46.0337 139.8008 0011230  17.6227 342.5064 15.23570105 81446
CFESAT                  
1 30777U 07006F   08238.03690525  .00000257  00000-0  22064-4 0  3893
2 30777  35.4327  98.3971 0003631 229.2472 130.7929 15.02554633 80483
NFIRE                   
1 31140U 07014A   08235.73926016  .00005169  00000-0  51373-4 0  5746
2 31140  48.2275  17.0495 0084281 292.2181  66.9841 15.63279794 75675
OFEQ 7                  
1 31601U 07025A   08238.19276198  .00001250  00000-0  35015-4 0  3854
2 31601 141.7483 128.0344 0073699 340.3807 178.5858 15.18758516 67396
SAR-LUPE 2              
1 31797U 07030A   08238.10995370  .00000573  00000-0  25240-4 0  2997
2 31797  98.2036  12.7141 0016247 151.1532 207.2695 15.26503209 63970
SAR-LUPE 3              
1 32283U 07053A   08238.07811801  .00000310  00000-0  15195-4 0  9281
2 32283  98.1577  76.6202 0011123 265.6092 240.6302 15.26475640 45486
SAR-LUPE 4              
1 32750U 08014A   08238.12040264  .00000481  00000-0  21638-4 0  4688
2 32750  98.1467 306.7036 0024350  19.1219  64.6764 15.26509879 22948
SAR-LUPE 5              
1 33244U 08036A   08238.09399576  .00000271  00000-0  13880-4 0  1189
2 33244  98.1517  75.4060 0022572  63.0809  92.6009 15.25971487  5184
